GLOBALSTAR M067         
1 32263U 07048A   25141.17264774 -.00000074  00000+0  17642-3 0  9990
2 32263  51.9705 114.9770 0001024 301.9076  71.4978 12.40672473806373
GLOBALSTAR M070         
1 32264U 07048B   25140.92112821 -.00000082  00000+0  12306-3 0  9999
2 32264  51.9738 211.5678 0000478 117.4353  53.3826 12.62318294810223
GLOBALSTAR M079         
1 37188U 10054A   25141.24460941 -.00000090  00000+0  74827-4 0  9991
2 37188  52.0030 221.8029 0000492 173.4040 204.3960 12.62264632673731
GLOBALSTAR M074         
1 37189U 10054B   25140.73834900 -.00000080  00000+0  13294-3 0  9994
2 37189  52.0008 222.6722 0000256 125.0073 349.9525 12.62269812673595
GLOBALSTAR M076         
1 37190U 10054C   25141.21851079 -.00000097  00000+0  39186-4 0  9993
2 37190  52.0018 221.3776 0000249 179.6579 199.0705 12.62262803673734
GLOBALSTAR M077         
1 37191U 10054D   25140.41249706 -.00000095  00000+0  46517-4 0  9997
2 37191  52.0048 180.6810 0000149 148.0069 225.7687 12.62268290673649
